ARIANE 40 R/B           
1 20443U 90005H   26054.42882068  .00000243  00000+0  90820-4 0  9993
2 20443  98.3117 115.5130 0009088 244.1712 115.8540 14.39860005890755
DELTA 2 R/B(1)          
1 20453U 90008B   26053.99208994  .00069712  00000+0  87847-3 0  9998
2 20453  35.6036 271.1525 0088367 121.7839 239.1540 15.53788808923848
COSMOS 2058             
1 20465U 90010A   26054.47871034  .00004612  00000+0  27287-3 0  9999
2 20465  82.4673  61.4283 0010399  31.4274 328.7575 15.11180628940098
SL-14 R/B               
1 20466U 90010B   26054.11837867  .00000388  00000+0  44074-4 0  9997
2 20466  82.5002 281.0788 0019611 352.4018   7.6897 14.83555347926326
SL-14 R/B               
1 20511U 90018B   26054.45973127  .00000492  00000+0  58700-4 0  9990
2 20511  82.5181 236.3921 0017328 135.4311 224.8301 14.82127526920471
HST                     
1 20580U 90037B   26054.45607146  .00008444  00000+0  28131-3 0  9991
2 20580  28.4686 137.0790 0001148 328.4128  31.6398 15.29234938771135
SL-16 R/B               
1 20625U 90046B   26054.20539230  .00000075  00000+0  63411-4 0  9995
2 20625  71.0017 328.3328 0015712 319.4937  40.5015 14.15014983846340
COSMOS 2084             
1 20663U 90055A   26054.30952129  .00003236  00000+0  23672-3 0  9990
2 20663  62.7913  24.6184 0019319 186.6382 173.4465 15.05548302934154
SL-6 R/B(2)             
1 20666U 90055D   26054.40563620  .00002285  00000+0  18040-3 0  9994
2 20666  62.7833 302.4244 0022551 343.3203  16.7152 15.03519922936044
SL-8 R/B                
1 20775U 90078B   26054.32739613  .00018511  00000+0  54329-3 0  9997
2 20775  82.9004 264.2235 0365318  62.1742 301.5993 14.88546538807162
SL-8 R/B                
1 21088U 91006B   26054.30825110  .00000055  00000+0  39865-4 0  9996
2 21088  82.9457 180.7367 0023668  76.8347 311.2874 13.77492662762095
OKEAN-3                 
1 21397U 91039A   26054.31540979  .00003947  00000+0  27793-3 0  9992
2 21397  82.5205 350.7657 0015076  25.9068 334.2910 15.04691593862874
COSMOS 2151             
1 21422U 91042A   26054.47514218  .00001708  00000+0  13480-3 0  9990
2 21422  82.4941  97.3907 0014092 106.1343 254.1433 15.00045895861060
SL-14 R/B               
1 21423U 91042B   26054.44219816  .00000457  00000+0  54916-4 0  9994
2 21423  82.4898 233.5446 0015605 289.7664  70.1867 14.81813495850960
ERS-1                   
1 21574U 91050A   26054.44751728  .00000306  00000+0  11263-3 0  9993
2 21574  98.7891  72.3240 0030985 243.6355 116.1650 14.39436842813684
ARIANE 40 R/B           
1 21610U 91050F   26054.39365185  .00000272  00000+0  93963-4 0  9996
2 21610  98.2045 107.1646 0004320 112.2211 247.9439 14.42882014816933
INTERCOSMOS 25          
1 21819U 91086A   26054.45768239  .00001236  00000+0  23647-3 0  9992
2 21819  82.6074 318.6088 1487083 147.5904 222.6028 12.11954758494962
SL-8 R/B                
1 21876U 92008B   26054.34663366  .00000010  00000+0 -53078-5 0  9996
2 21876  82.9238 278.4500 0034756 172.7396   1.2378 13.75969924707442
SL-8 R/B                
1 21938U 92020B   26054.28125495  .00000097  00000+0  84761-4 0  9994
2 21938  82.9344 164.4558 0028322 340.4352  38.1743 13.75547624699156
USA 81                  
1 21949U 92023A   26054.47766089  .00000191  00000+0  63424-4 0  9998
2 21949  85.0111 139.6375 0002729  89.9218 270.2288 14.32362672 92752
COSMOS 2219             
1 22219U 92076A   26054.44409146  .00000348  00000+0  20748-3 0  9997
2 22219  71.0594  47.8476 0019667 226.0843 133.8657 14.14082636716365
SL-16 R/B               
1 22220U 92076B   26054.42896534  .00000218  00000+0  13245-3 0  9998
2 22220  70.9981 218.4121 0010958 122.5435 265.6562 14.16855682719812
COSMOS 2221             
1 22236U 92080A   26054.39209678  .00001782  00000+0  15583-3 0  9997
2 22236  82.5032 292.7768 0012978 238.3932 121.6024 14.96141041778655
SL-16 R/B               
1 22285U 92093B   26054.25213345  .00000216  00000+0  13514-3 0  9999
2 22285  71.0223  34.5728 0005844 309.2884  50.7720 14.15448168711114
COSMOS 2228             
1 22286U 92094A   26054.48469245  .00002497  00000+0  21358-3 0  9996
2 22286  82.5147 250.9138 0017863 354.5546   5.5479 14.97114022773934
SL-16 R/B               
1 22566U 93016B   26054.50312772  .00000082  00000+0  66359-4 0  9996
2 22566  71.0044 244.9789 0010899 333.7186  26.3383 14.15300320700168
COSMOS 2242             
1 22626U 93024A   26054.32711637  .00001850  00000+0  16028-3 0  9996
2 22626  82.5168 280.4564 0016379 359.0718   1.0470 14.96485286778241
SL-16 R/B               
1 22803U 93059B   26054.43123482  .00000200  00000+0  12292-3 0  9995
2 22803  70.9900  41.1938 0019088 236.1614 123.7694 14.17228337677513
ARIANE 40 R/B           
1 22830U 93061H   26054.17379277  .00000194  00000+0  87071-4 0  9994
2 22830  98.4949 123.3459 0009967 332.4090  27.6564 14.32852503692021
COSMOS 2278             
1 23087U 94023A   26054.38222588  .00000379  00000+0  22257-3 0  9992
2 23087  71.0521 205.0289 0007289  41.6893 318.4784 14.14368549642788
SL-16 R/B               
1 23088U 94023B   26054.36447279  .00000181  00000+0  11820-3 0  9992
2 23088  70.9990 100.9739 0005119 298.8697  61.1912 14.15011892644063
SL-16 R/B               
1 23343U 94074B   26054.54092538  .00000482  00000+0  71241-4 0  9994
2 23343  97.7130  85.9305 0005120 266.8813 254.2945 14.79389658685152
SL-16 R/B               
1 23405U 94077B   26054.28099734 -.00000034  00000+0  71097-5 0  9996
2 23405  70.9843  22.7997 0003777 227.6866 132.3937 14.15564068614193
ARIANE 40+ R/B          
1 23561U 95021B   26054.42157413  .00000286  00000+0  10506-3 0  9998
2 23561  98.4528 126.0953 0006943 175.5134 195.9310 14.39761036617191
SL-16 R/B               
1 23705U 95058B   26054.35793441 -.00000219  00000+0 -87590-4 0  9993
2 23705  71.0202 210.3421 0011257 151.1221 209.0527 14.15494620565820
SL-16 R/B               
1 24298U 96051B   26054.43516280  .00000102  00000+0  81998-4 0  9993
2 24298  70.7583 205.4086 0016352 168.6181 191.5311 14.12411579519630
ORBVIEW 2 (SEASTAR)     
1 24883U 97037A   26054.40771524  .00000299  00000+0  12031-3 0  9997
2 24883  98.8542 218.3430 0003198 100.5611 259.5934 14.35482661506423
SL-16 R/B               
1 25400U 98043G   26054.27793123  .00000076  00000+0  50735-4 0  9992
2 25400  98.8229   7.5415 0010812  59.2526 300.9717 14.26046106436936
SL-16 R/B               
1 25407U 98045B   26054.37592854 -.00000036  00000+0  59498-5 0  9993
2 25407  71.0102 211.6734 0005986  31.6977 328.4505 14.16191374425078
ISS (ZARYA)             
1 25544U 98067A   26054.44354527  .00014146  00000+0  27129-3 0  9990
2 25544  51.6318 142.7772 0008452 125.3696 234.8083 15.48237969554126
CZ-4B R/B               
1 25732U 99025C   26054.12455826  .00000028  00000+0  34275-4 0  9998
2 25732  98.6659  98.7491 0037530  28.4022 352.4286 14.18262208386100
OKEAN-O                 
1 25860U 99039A   26054.18686126  .00000676  00000+0  95604-4 0  9992
2 25860  97.9476 114.2235 0001645  77.0618 283.0778 14.80309880432249
SL-16 R/B               
1 25861U 99039B   26054.18041094  .00000570  00000+0  79119-4 0  9998
2 25861  98.0000 113.2964 0013665 307.8328  52.1647 14.81709334434713
DELTA 2 R/B             
1 25876U 99041E   26054.28310654  .00001824  00000+0  33104-3 0  9995
2 25876  51.7661 358.8153 0502205 305.8918  49.6369 14.11782462360997
HELIOS 1B               
1 25977U 99064A   26054.38738353  .00001798  00000+0  20413-3 0  9992
2 25977  98.1711 316.2095 0002466  94.2967 265.8530 14.87633316683132
TERRA                   
1 25994U 99068A   26054.39184242  .00000451  00000+0  10108-3 0  9993
2 25994  97.9625 108.3706 0001692 190.0361 180.4590 14.60997850392990
SL-16 R/B               
1 26070U 00006B   26054.45827695  .00000198  00000+0  12489-3 0  9998
2 26070  71.0021 127.7627 0017670 209.8130 150.1988 14.15819461346548
TITAN 4B R/B            
1 26474U 00047B   26054.45034646  .00003800  00000+0  24147-3 0  9994
2 26474  67.9883  80.5478 0037752  52.5145 307.9426 15.09419200390761
ENVISAT                 
1 27386U 02009A   26054.37634088  .00000136  00000+0  57747-4 0  9996
2 27386  98.3703   8.3167 0001363  86.3830  69.2287 14.39031044257113
IDEFIX & ARIANE 42P R/B 
1 27422U 02021B   26054.30205368  .00000288  00000+0  12585-3 0  9997
2 27422  98.5857 353.0817 0010824 226.7615 133.2665 14.31014844241960
AQUA                    
1 27424U 02022A   26054.52629126  .00001106  00000+0  23078-3 0  9995
2 27424  98.4148  21.6363 0000953  47.9744  61.5724 14.61938421266668
CZ-4B R/B               
1 27432U 02024C   26054.42100903  .00000023  00000+0  34652-4 0  9990
2 27432  98.8874 107.8975 0051039  64.2215 306.9794 14.14544816227220
MIDORI II (ADEOS-II)    
1 27597U 02056A   26054.31265891  .00000261  00000+0  12049-3 0  9992
2 27597  98.7743  12.6935 0002023  63.5167 296.6222 14.29272976208245
H-2A R/B                
1 27601U 02056E   26054.34250131  .00000283  00000+0  11368-3 0  9999
2 27601  98.3175  15.2567 0069613 203.5003 276.0825 14.33750012212051
CZ-4B R/B               
1 28059U 03049C   26054.42359171  .00000427  00000+0  10971-3 0  9992
2 28059  98.6866  48.7705 0047008 275.5040  84.0795 14.55004041184529
CZ-2C R/B               
1 28222U 04012C   26054.14539308  .00058109  00000+0  64325-3 0  9998
2 28222  97.7262 118.0783 0014233   7.7276 352.4198 15.62699928202004
SL-16 R/B               
1 28353U 04021B   26054.31451935  .00000166  00000+0  11128-3 0  9994
2 28353  70.9989 262.6622 0003346  42.5055 317.6326 14.14598623120800
CZ-4B R/B               
1 28415U 04035C   26054.05255159  .00009943  00000+0  35250-3 0  9993
2 28415  97.3525  88.4720 0032816  23.8784 336.3970 15.28768070177677
CZ-2C R/B               
1 28480U 04046B   26054.32151776  .00000127  00000+0  62639-4 0  9994
2 28480  98.1989 330.1987 0138995 196.9067 162.7459 14.26986799106453
